[{"OBJECT_NAME":"STARLINK-34361","OBJECT_ID":"2025-130N","EPOCH":"2026-03-09T10:26:50.063424","MEAN_MOTION":15.3021918,"ECCENTRICITY":9.235e-5,"INCLINATION":53.16,"RA_OF_ASC_NODE":89.7525,"ARG_OF_PERICENTER":79.2623,"MEAN_ANOMALY":280.8482,"EPHEMERIS_TYPE":0,"CLASSIFICATION_TYPE":"U","NORAD_CAT_ID":64450,"ELEMENT_SET_NO":999,"REV_AT_EPOCH":4183,"BSTAR":0.00079881741,"MEAN_MOTION_DOT":0.00023388,"MEAN_MOTION_DDOT":0},{"OBJECT_NAME":"OBJECT BD","OBJECT_ID":"2025-313BD","EPOCH":"2026-03-09T15:06:44.992224","MEAN_MOTION":15.3000236,"ECCENTRICITY":0.00072867,"INCLINATION":97.397,"RA_OF_ASC_NODE":145.285,"ARG_OF_PERICENTER":333.4514,"MEAN_ANOMALY":26.6352,"EPHEMERIS_TYPE":0,"CLASSIFICATION_TYPE":"U","NORAD_CAT_ID":67299,"ELEMENT_SET_NO":999,"REV_AT_EPOCH":1083,"BSTAR":0.0027633805,"MEAN_MOTION_DOT":0.0008101,"MEAN_MOTION_DDOT":0}]
