STARLINK-34361          
1 64450U 25130N   26068.43530166  .00023388  00000+0  79882-3 0  9990
2 64450  53.1600  89.7525 0000923  79.2623 280.8482 15.30219180 41833
2025-313BD              
1 67299U 25313BD  26068.62968741  .00081010  00000+0  27634-2 0  9995
2 67299  97.3970 145.2850 0007287 333.4514  26.6352 15.30002360 10838
